[{"OBJECT_NAME":"IRIDIUM 129","OBJECT_ID":"2017-061D","EPOCH":"2026-03-09T22:44:30.673536","MEAN_MOTION":14.34217481,"ECCENTRICITY":0.0002338,"INCLINATION":86.3914,"RA_OF_ASC_NODE":66.7388,"ARG_OF_PERICENTER":83.3381,"MEAN_ANOMALY":276.8081,"EPHEMERIS_TYPE":0,"CLASSIFICATION_TYPE":"U","NORAD_CAT_ID":42958,"ELEMENT_SET_NO":999,"REV_AT_EPOCH":44057,"BSTAR":-5.174136e-6,"MEAN_MOTION_DOT":5.0e-8,"MEAN_MOTION_DDOT":0},{"OBJECT_NAME":"NOAA 16 DEB","OBJECT_ID":"2000-055HL","EPOCH":"2026-03-06T14:25:51.730752","MEAN_MOTION":14.34545424,"ECCENTRICITY":0.00237791,"INCLINATION":98.5977,"RA_OF_ASC_NODE":123.6788,"ARG_OF_PERICENTER":180.7173,"MEAN_ANOMALY":179.3982,"EPHEMERIS_TYPE":0,"CLASSIFICATION_TYPE":"U","NORAD_CAT_ID":41343,"ELEMENT_SET_NO":999,"REV_AT_EPOCH":52371,"BSTAR":0.002035426,"MEAN_MOTION_DOT":5.723e-5,"MEAN_MOTION_DDOT":0}]
